QIANFAN-81              
1 63167U 25046J   26204.27202603  .00000118  00000+0  16359-3 0  9992
2 63167  88.9721 296.7869 0014977 189.6441 170.4425 13.51026133 77538
QIANFAN-82              
1 63168U 25046K   26204.23094508  .00000122  00000+0  16974-3 0  9990
2 63168  88.9721 296.8353 0012564 195.0078 165.0702 13.51020618 77513
QIANFAN-83              
1 63169U 25046L   26204.22254740  .00000152  00000+0  18074-3 0  9992
2 63169  88.9722 296.1744 0014970 169.6626 190.4843 13.62053474 77887
QIANFAN-84              
1 63170U 25046M   26204.25982208  .00000123  00000+0  17185-3 0  9994
2 63170  88.9721 296.9650 0015753 193.4306 166.6428 13.51046597 77444
QIANFAN-85              
1 63171U 25046N   26204.25563295  .00000129  00000+0  18030-3 0  9992
2 63171  88.9720 296.8355 0013122 194.1555 165.9230 13.51018326 77517
QIANFAN-86              
1 63172U 25046P   26204.26384199  .00000130  00000+0  18306-3 0  9996
2 63172  88.9722 296.7020 0010813 196.3384 163.7420 13.51025901 77598
QIANFAN-87              
1 63173U 25046Q   26204.23519625  .00000115  00000+0  15893-3 0  9999
2 63173  88.9719 296.8083 0011551 192.1269 167.9606 13.51011334 77521
QIANFAN-88              
1 63174U 25046R   26204.25160538  .00000129  00000+0  18047-3 0  9996
2 63174  88.9721 296.7667 0011632 200.9777 159.0898 13.51019023 77555
QIANFAN-89              
1 63175U 25046S   26204.21442976  .00000118  00000+0  16421-3 0  9994
2 63175  88.9721 296.9594 0016560 194.4326 165.6354 13.51026188 77447
QIANFAN-90              
1 63176U 25046T   26204.24327050  .00000129  00000+0  18064-3 0  9990
2 63176  88.9722 296.9294 0013575 191.1161 168.9692 13.51018654 77462
QIANFAN-91              
1 66033U 25233A   26204.05355674  .00000047  00000+0  53788-4 0  9997
2 66033  88.9980  39.5596 0002155  95.2101 264.9296 13.51015306 38026
QIANFAN-92              
1 66034U 25233B   26204.06175670  .00000059  00000+0  73142-4 0  9994
2 66034  88.9964  39.5246 0001975  89.6788 270.4589 13.51013871 38020
QIANFAN-93              
1 66035U 25233C   26204.29214604  .00000039  00000+0  41557-4 0  9994
2 66035  88.9991  39.5629 0002082  93.9797 266.1593 13.51017110 38054
QIANFAN-94              
1 66036U 25233D   26204.27983677  .00000064  00000+0  80057-4 0  9992
2 66036  88.9987  39.4662 0002123  89.7858 270.3536 13.51016183 38102
QIANFAN-95              
1 66037U 25233E   26204.06588630  .00000048  00000+0  55789-4 0  9996
2 66037  88.9985  39.0305 0002262  93.3738 266.7672 13.51017138 38328
QIANFAN-96              
1 66038U 25233F   26204.09058847  .00000054  00000+0  64331-4 0  9992
2 66038  88.9983  39.5706 0002183  96.0639 264.0761 13.51015902 38023
