{"fetched_at":"2026-07-23T17:55:11.690Z","source":"https://celestrak.org/NORAD/elements/gp.php?GROUP=qianfan&FORMAT=JSON","constellation":"qianfan","records":[{"OBJECT_NAME":"QIANFAN-81","OBJECT_ID":"2025-046J","EPOCH":"2026-07-23T06:31:43.048992","CLASSIFICATION_TYPE":"U","MEAN_MOTION":13.51026133,"ECCENTRICITY":0.00149775,"INCLINATION":88.9721,"RA_OF_ASC_NODE":296.7869,"ARG_OF_PERICENTER":189.6441,"MEAN_ANOMALY":170.4425,"EPHEMERIS_TYPE":0,"NORAD_CAT_ID":63167,"ELEMENT_SET_NO":999,"REV_AT_EPOCH":7753,"BSTAR":0.00016359295,"MEAN_MOTION_DOT":0.00000118,"MEAN_MOTION_DDOT":0},{"OBJECT_NAME":"QIANFAN-82","OBJECT_ID":"2025-046K","EPOCH":"2026-07-23T05:32:33.654912","CLASSIFICATION_TYPE":"U","MEAN_MOTION":13.51020618,"ECCENTRICITY":0.0012564,"INCLINATION":88.9721,"RA_OF_ASC_NODE":296.8353,"ARG_OF_PERICENTER":195.0078,"MEAN_ANOMALY":165.0702,"EPHEMERIS_TYPE":0,"NORAD_CAT_ID":63168,"ELEMENT_SET_NO":999,"REV_AT_EPOCH":7751,"BSTAR":0.00016973705,"MEAN_MOTION_DOT":0.00000122,"MEAN_MOTION_DDOT":0},{"OBJECT_NAME":"QIANFAN-83","OBJECT_ID":"2025-046L","EPOCH":"2026-07-23T05:20:28.095360","CLASSIFICATION_TYPE":"U","MEAN_MOTION":13.62053474,"ECCENTRICITY":0.00149704,"INCLINATION":88.9722,"RA_OF_ASC_NODE":296.1744,"ARG_OF_PERICENTER":169.6626,"MEAN_ANOMALY":190.4843,"EPHEMERIS_TYPE":0,"NORAD_CAT_ID":63169,"ELEMENT_SET_NO":999,"REV_AT_EPOCH":7788,"BSTAR":0.00018073665,"MEAN_MOTION_DOT":0.00000152,"MEAN_MOTION_DDOT":0},{"OBJECT_NAME":"QIANFAN-84","OBJECT_ID":"2025-046M","EPOCH":"2026-07-23T06:14:08.627712","CLASSIFICATION_TYPE":"U","MEAN_MOTION":13.51046597,"ECCENTRICITY":0.00157533,"INCLINATION":88.9721,"RA_OF_ASC_NODE":296.965,"ARG_OF_PERICENTER":193.4306,"MEAN_ANOMALY":166.6428,"EPHEMERIS_TYPE":0,"NORAD_CAT_ID":63170,"ELEMENT_SET_NO":999,"REV_AT_EPOCH":7744,"BSTAR":0.00017184625,"MEAN_MOTION_DOT":0.00000123,"MEAN_MOTION_DDOT":0},{"OBJECT_NAME":"QIANFAN-85","OBJECT_ID":"2025-046N","EPOCH":"2026-07-23T06:08:06.686880","CLASSIFICATION_TYPE":"U","MEAN_MOTION":13.51018326,"ECCENTRICITY":0.00131221,"INCLINATION":88.972,"RA_OF_ASC_NODE":296.8355,"ARG_OF_PERICENTER":194.1555,"MEAN_ANOMALY":165.923,"EPHEMERIS_TYPE":0,"NORAD_CAT_ID":63171,"ELEMENT_SET_NO":999,"REV_AT_EPOCH":7751,"BSTAR":0.00018030041,"MEAN_MOTION_DOT":0.00000129,"MEAN_MOTION_DDOT":0},{"OBJECT_NAME":"QIANFAN-86","OBJECT_ID":"2025-046P","EPOCH":"2026-07-23T06:19:55.947936","CLASSIFICATION_TYPE":"U","MEAN_MOTION":13.51025901,"ECCENTRICITY":0.00108136,"INCLINATION":88.9722,"RA_OF_ASC_NODE":296.702,"ARG_OF_PERICENTER":196.3384,"MEAN_ANOMALY":163.742,"EPHEMERIS_TYPE":0,"NORAD_CAT_ID":63172,"ELEMENT_SET_NO":999,"REV_AT_EPOCH":7759,"BSTAR":0.00018305922,"MEAN_MOTION_DOT":0.0000013,"MEAN_MOTION_DDOT":0},{"OBJECT_NAME":"QIANFAN-87","OBJECT_ID":"2025-046Q","EPOCH":"2026-07-23T05:38:40.956000","CLASSIFICATION_TYPE":"U","MEAN_MOTION":13.51011334,"ECCENTRICITY":0.00115514,"INCLINATION":88.9719,"RA_OF_ASC_NODE":296.8083,"ARG_OF_PERICENTER":192.1269,"MEAN_ANOMALY":167.9606,"EPHEMERIS_TYPE":0,"NORAD_CAT_ID":63173,"ELEMENT_SET_NO":999,"REV_AT_EPOCH":7752,"BSTAR":0.00015892912,"MEAN_MOTION_DOT":0.00000115,"MEAN_MOTION_DDOT":0},{"OBJECT_NAME":"QIANFAN-88","OBJECT_ID":"2025-046R","EPOCH":"2026-07-23T06:02:18.704832","CLASSIFICATION_TYPE":"U","MEAN_MOTION":13.51019023,"ECCENTRICITY":0.00116328,"INCLINATION":88.9721,"RA_OF_ASC_NODE":296.7667,"ARG_OF_PERICENTER":200.9777,"MEAN_ANOMALY":159.0898,"EPHEMERIS_TYPE":0,"NORAD_CAT_ID":63174,"ELEMENT_SET_NO":999,"REV_AT_EPOCH":7755,"BSTAR":0.00018047497,"MEAN_MOTION_DOT":0.00000129,"MEAN_MOTION_DDOT":0},{"OBJECT_NAME":"QIANFAN-89","OBJECT_ID":"2025-046S","EPOCH":"2026-07-23T05:08:46.731264","CLASSIFICATION_TYPE":"U","MEAN_MOTION":13.51026188,"ECCENTRICITY":0.00165602,"INCLINATION":88.9721,"RA_OF_ASC_NODE":296.9594,"ARG_OF_PERICENTER":194.4326,"MEAN_ANOMALY":165.6354,"EPHEMERIS_TYPE":0,"NORAD_CAT_ID":63175,"ELEMENT_SET_NO":999,"REV_AT_EPOCH":7744,"BSTAR":0.00016420851,"MEAN_MOTION_DOT":0.00000118,"MEAN_MOTION_DDOT":0},{"OBJECT_NAME":"QIANFAN-90","OBJECT_ID":"2025-046T","EPOCH":"2026-07-23T05:50:18.571200","CLASSIFICATION_TYPE":"U","MEAN_MOTION":13.51018654,"ECCENTRICITY":0.00135755,"INCLINATION":88.9722,"RA_OF_ASC_NODE":296.9294,"ARG_OF_PERICENTER":191.1161,"MEAN_ANOMALY":168.9692,"EPHEMERIS_TYPE":0,"NORAD_CAT_ID":63176,"ELEMENT_SET_NO":999,"REV_AT_EPOCH":7746,"BSTAR":0.00018064294,"MEAN_MOTION_DOT":0.00000129,"MEAN_MOTION_DDOT":0},{"OBJECT_NAME":"QIANFAN-91","OBJECT_ID":"2025-233A","EPOCH":"2026-07-23T01:17:07.302336","CLASSIFICATION_TYPE":"U","MEAN_MOTION":13.51015306,"ECCENTRICITY":0.00021555,"INCLINATION":88.998,"RA_OF_ASC_NODE":39.5596,"ARG_OF_PERICENTER":95.2101,"MEAN_ANOMALY":264.9296,"EPHEMERIS_TYPE":0,"NORAD_CAT_ID":66033,"ELEMENT_SET_NO":999,"REV_AT_EPOCH":3802,"BSTAR":0.000053787833,"MEAN_MOTION_DOT":4.7e-7,"MEAN_MOTION_DDOT":0},{"OBJECT_NAME":"QIANFAN-92","OBJECT_ID":"2025-233B","EPOCH":"2026-07-23T01:28:55.778880","CLASSIFICATION_TYPE":"U","MEAN_MOTION":13.51013871,"ECCENTRICITY":0.00019754,"INCLINATION":88.9964,"RA_OF_ASC_NODE":39.5246,"ARG_OF_PERICENTER":89.6788,"MEAN_ANOMALY":270.4589,"EPHEMERIS_TYPE":0,"NORAD_CAT_ID":66034,"ELEMENT_SET_NO":999,"REV_AT_EPOCH":3802,"BSTAR":0.000073142293,"MEAN_MOTION_DOT":5.9e-7,"MEAN_MOTION_DDOT":0},{"OBJECT_NAME":"QIANFAN-93","OBJECT_ID":"2025-233C","EPOCH":"2026-07-23T07:00:41.417856","CLASSIFICATION_TYPE":"U","MEAN_MOTION":13.5101711,"ECCENTRICITY":0.00020824,"INCLINATION":88.9991,"RA_OF_ASC_NODE":39.5629,"ARG_OF_PERICENTER":93.9797,"MEAN_ANOMALY":266.1593,"EPHEMERIS_TYPE":0,"NORAD_CAT_ID":66035,"ELEMENT_SET_NO":999,"REV_AT_EPOCH":3805,"BSTAR":0.000041557133,"MEAN_MOTION_DOT":3.9e-7,"MEAN_MOTION_DDOT":0},{"OBJECT_NAME":"QIANFAN-94","OBJECT_ID":"2025-233D","EPOCH":"2026-07-23T06:42:57.896928","CLASSIFICATION_TYPE":"U","MEAN_MOTION":13.51016183,"ECCENTRICITY":0.00021232,"INCLINATION":88.9987,"RA_OF_ASC_NODE":39.4662,"ARG_OF_PERICENTER":89.7858,"MEAN_ANOMALY":270.3536,"EPHEMERIS_TYPE":0,"NORAD_CAT_ID":66036,"ELEMENT_SET_NO":999,"REV_AT_EPOCH":3810,"BSTAR":0.00008005667,"MEAN_MOTION_DOT":6.4e-7,"MEAN_MOTION_DDOT":0},{"OBJECT_NAME":"QIANFAN-95","OBJECT_ID":"2025-233E","EPOCH":"2026-07-23T01:34:52.576320","CLASSIFICATION_TYPE":"U","MEAN_MOTION":13.51017138,"ECCENTRICITY":0.00022624,"INCLINATION":88.9985,"RA_OF_ASC_NODE":39.0305,"ARG_OF_PERICENTER":93.3738,"MEAN_ANOMALY":266.7672,"EPHEMERIS_TYPE":0,"NORAD_CAT_ID":66037,"ELEMENT_SET_NO":999,"REV_AT_EPOCH":3832,"BSTAR":0.000055789319,"MEAN_MOTION_DOT":4.8e-7,"MEAN_MOTION_DDOT":0},{"OBJECT_NAME":"QIANFAN-96","OBJECT_ID":"2025-233F","EPOCH":"2026-07-23T02:10:26.843808","CLASSIFICATION_TYPE":"U","MEAN_MOTION":13.51015902,"ECCENTRICITY":0.00021832,"INCLINATION":88.9983,"RA_OF_ASC_NODE":39.5706,"ARG_OF_PERICENTER":96.0639,"MEAN_ANOMALY":264.0761,"EPHEMERIS_TYPE":0,"NORAD_CAT_ID":66038,"ELEMENT_SET_NO":999,"REV_AT_EPOCH":3802,"BSTAR":0.000064331453,"MEAN_MOTION_DOT":5.4e-7,"MEAN_MOTION_DDOT":0}]}
